XRISM                   
1 57800U 23137A   23265.70121584  .00004992  00000+0  40670-3 0  9995
2 57800  31.0035 277.1832 0009874  73.0584 287.1132 14.97945439  2279
